NORAD_CAT_ID,OBJECT_NAME,OBJECT_TYPE,EPOCH,MEAN_MOTION,ECCENTRICITY,INCLINATION,RA_OF_ASC_NODE,ARG_OF_PERICENTER,MEAN_ANOMALY,BSTAR,MEAN_MOTION_DOT,MEAN_MOTION_DDOT,TLE_LINE0,TLE_LINE1,TLE_LINE2,SEMIMAJOR_AXIS,PERIOD,APOGEE,PERIGEE,DECAYED
49147.0,STARLINK-3071,PAYLOAD,2024-05-25 03:36:07,14.98325503,0.0002964,69.9991,102.2671,268.0066,92.0754,-2.3656e-05,-3.75e-06,0.0,0 STARLINK-3071,1 49147U 21082T   24146.15008135 -.00000375  00000-0 -23656-4 0  9991,2 49147  69.9991 102.2671 0002964 268.0066  92.0754 14.98325503150247,6950.207,96.107,574.132,570.012,0.0
49147.0,STARLINK-3071,PAYLOAD,2024-05-25 06:48:23,14.98323944,0.0002646,69.9998,101.9309,262.6135,97.4723,-3.1213e-05,-4.65e-06,0.0,0 STARLINK-3071,1 49147U 21082T   24146.28360292 -.00000465  00000-0 -31213-4 0  9998,2 49147  69.9998 101.9309 0002646 262.6135  97.4723 14.98323944149095,6950.212,96.107,573.916,570.238,0.0
49147.0,STARLINK-3071,PAYLOAD,2024-05-26 03:38:07,14.98332878,0.0003077,69.9989,99.7426,268.7993,91.2814,-3.1331e-05,-4.67e-06,0.0,0 STARLINK-3071,1 49147U 21082T   24147.15147733 -.00000467  00000-0 -31331-4 0  9991,2 49147  69.9989  99.7426 0003077 268.7993  91.2814 14.98332878150391,6950.184,96.107,574.188,569.91,0.0
49147.0,STARLINK-3071,PAYLOAD,2024-05-26 06:50:23,14.98334677,0.0002998,69.999,99.405,268.8011,91.2804,-2.9889e-06,-1.29e-06,0.0,0 STARLINK-3071,1 49147U 21082T   24147.28499542 -.00000129  00000-0 -29889-5 0  9994,2 49147  69.9990  99.4050 0002998 268.8011  91.2804 14.98334677149246,6950.178,96.107,574.127,569.96,0.0
49147.0,STARLINK-3071,PAYLOAD,2024-05-26 22:51:44,14.98324977,0.0002968,69.9992,97.7216,269.5233,90.5586,8.9125e-05,9.7e-06,0.0,0 STARLINK-3071,1 49147U 21082T   24147.95259861  .00000970  00000-0  89125-4 0  9996,2 49147  69.9992  97.7216 0002968 269.5233  90.5586 14.98324977149346,6950.208,96.107,574.136,570.011,0.0
49147.0,STARLINK-3071,PAYLOAD,2024-05-27 05:16:16,14.98326563,0.0002951,69.9992,97.0484,268.6957,91.3863,9.3091e-05,1.018e-05,0.0,0 STARLINK-3071,1 49147U 21082T   24148.21963823  .00001018  00000-0  93091-4 0  9997,2 49147  69.9992  97.0484 0002951 268.6957  91.3863 14.98326563150556,6950.204,96.107,574.12,570.018,0.0
49147.0,STARLINK-3071,PAYLOAD,2024-05-27 13:16:57,14.98327012,0.0002599,70.0004,96.2088,267.1367,92.9494,7.2116e-06,-7e-08,0.0,0 STARLINK-3071,1 49147U 21082T   24148.55344168 -.00000007  00000-0  72116-5 0  9993,2 49147  70.0004  96.2088 0002599 267.1367  92.9494 14.98327012149433,6950.202,96.107,573.873,570.261,0.0
49147.0,STARLINK-3071,PAYLOAD,2024-05-27 22:53:45,14.983282,0.000278,69.9997,95.1976,263.171,96.9133,1.7108e-05,1.11e-06,0.0,0 STARLINK-3071,1 49147U 21082T   24148.95399964  .00000111  00000-0  17108-4 0  9995,2 49147  69.9997  95.1976 0002780 263.1710  96.9133 14.98328200149495,6950.198,96.107,573.996,570.131,0.0
49147.0,STARLINK-3071,PAYLOAD,2024-05-28 05:18:17,14.98330209,0.0002742,69.9997,94.5242,261.8042,98.2806,3.7871e-05,3.59e-06,0.0,0 STARLINK-3071,1 49147U 21082T   24149.22103786  .00000359  00000-0  37871-4 0  9994,2 49147  69.9997  94.5242 0002742 261.8042  98.2806 14.98330209150705,6950.192,96.107,573.963,570.152,0.0
49147.0,STARLINK-3071,PAYLOAD,2024-05-28 13:18:57,14.98331939,0.0002732,69.9999,93.6826,263.9403,96.1445,1.2881e-05,6.1e-07,0.0,0 STARLINK-3071,1 49147U 21082T   24149.55483721  .00000061  00000-0  12881-4 0  9994,2 49147  69.9999  93.6826 0002732 263.9403  96.1445 14.98331939149589,6950.187,96.107,573.951,570.153,0.0
49147.0,STARLINK-3071,PAYLOAD,2024-05-28 21:19:38,14.98329942,0.000268,70.0,92.8411,264.0351,96.0503,2.6917e-05,2.28e-06,0.0,0 STARLINK-3071,1 49147U 21082T   24149.88863784  .00000228  00000-0  26917-4 0  9991,2 49147  70.0000  92.8411 0002680 264.0351  96.0503 14.98329942149633,6950.193,96.107,573.921,570.195,0.0
49147.0,STARLINK-3071,PAYLOAD,2024-05-29 05:20:18,14.98330084,0.0002678,70.0,91.9997,263.6664,96.419,2.6853e-05,2.27e-06,0.0,0 STARLINK-3071,1 49147U 21082T   24150.22243769  .00000227  00000-0  26853-4 0  9994,2 49147  70.0000  91.9997 0002678 263.6664  96.4190 14.98330084150852,6950.193,96.107,573.919,570.196,0.0
49147.0,STARLINK-3071,PAYLOAD,2024-05-29 22:57:47,14.98332719,0.0002699,69.9999,90.148,263.9638,96.1214,4.1145e-05,3.98e-06,0.0,0 STARLINK-3071,1 49147U 21082T   24150.95679493  .00000398  00000-0  41145-4 0  9991,2 49147  69.9999  90.1480 0002699 263.9638  96.1214 14.98332719149793,6950.184,96.107,573.925,570.174,0.0
49147.0,STARLINK-3071,PAYLOAD,2024-05-30 05:22:19,14.98334281,0.0002666,70.0,89.4747,262.4885,97.5971,5.7564e-05,5.94e-06,0.0,0 STARLINK-3071,1 49147U 21082T   24151.22383285  .00000594  00000-0  57564-4 0  9993,2 49147  70.0000  89.4747 0002666 262.4885  97.5971 14.98334281151006,6950.18,96.107,573.898,570.192,0.0
49147.0,STARLINK-3071,PAYLOAD,2024-05-30 21:23:40,14.98328609,0.0002689,70.0,87.7913,267.9589,92.1262,-5.3109e-06,-1.56e-06,0.0,0 STARLINK-3071,1 49147U 21082T   24151.89143775 -.00000156  00000-0 -53109-5 0  9992,2 49147  70.0000  87.7913 0002689 267.9589  92.1262 14.98328609151100,6950.197,96.107,573.931,570.193,0.0
49147.0,STARLINK-3071,PAYLOAD,2024-05-31 05:24:20,14.98330437,0.0002648,70.0003,86.9494,269.3939,90.6916,-1.2301e-05,-2.4e-06,0.0,0 STARLINK-3071,1 49147U 21082T   24152.22523722 -.00000240  00000-0 -12301-4 0  9996,2 49147  70.0003  86.9494 0002648 269.3939  90.6916 14.98330437149982,6950.192,96.107,573.897,570.216,0.0
49147.0,STARLINK-3071,PAYLOAD,2024-05-31 23:01:48,14.98330625,0.0002841,69.9997,85.0967,268.7579,91.3255,1.4377e-05,7.9e-07,0.0,0 STARLINK-3071,1 49147U 21082T   24152.95959466  .00000079  00000-0  14377-4 0  9997,2 49147  69.9997  85.0967 0002841 268.7579  91.3255 14.98330625150091,6950.191,96.107,574.031,570.081,0.0
49147.0,STARLINK-3071,PAYLOAD,2024-06-01 03:50:12,14.98334702,0.0003031,69.9998,84.5925,271.6934,88.3878,1.9064e-05,1.34e-06,0.0,0 STARLINK-3071,1 49147U 21082T   24153.15987161  .00000134  00000-0  19064-4 0  9993,2 49147  69.9998  84.5925 0003031 271.6934  88.3878 14.98334702151290,6950.178,96.107,574.15,569.937,0.0
49147.0,STARLINK-3071,PAYLOAD,2024-06-01 05:26:20,14.98348277,0.0002871,69.9999,84.4241,270.6844,89.3986,-0.00019268,-2.392e-05,0.0,0 STARLINK-3071,1 49147U 21082T   24153.22662759 -.00002392  00000-0 -19268-3 0  9999,2 49147  69.9999  84.4241 0002871 270.6844  89.3986 14.98348277151306,6950.136,96.106,573.997,570.006,0.0
49147.0,STARLINK-3071,PAYLOAD,2024-06-01 21:27:42,14.98318757,0.0002878,69.9999,82.741,269.2707,90.8122,0.00014369,1.621e-05,0.0,0 STARLINK-3071,1 49147U 21082T   24153.89423798  .00001621  00000-0  14369-3 0  9999,2 49147  69.9999  82.7410 0002878 269.2707  90.8122 14.98318757151404,6950.228,96.108,574.093,570.092,0.0
49147.0,STARLINK-3071,PAYLOAD,2024-06-02 11:52:54,14.98333891,0.0002829,70.0002,81.2263,270.2788,89.8047,-9.4252e-05,-1.217e-05,0.0,0 STARLINK-3071,1 49147U 21082T   24154.49507462 -.00001217  00000-0 -94252-4 0  9990,2 49147  70.0002  81.2263 0002829 270.2788  89.8047 14.98333891151498,6950.181,96.107,574.012,570.08,0.0
49147.0,STARLINK-3071,PAYLOAD,2024-06-03 11:54:55,14.98346496,0.0002824,70.0005,78.7018,273.7817,86.3019,-0.0002699,-3.313e-05,0.0,0 STARLINK-3071,1 49147U 21082T   24155.49647008 -.00003313  00000-0 -26990-3 0  9994,2 49147  70.0005  78.7018 0002824 273.7817  86.3019 14.98346496151649,6950.142,96.106,573.97,570.044,0.0
49147.0,STARLINK-3071,PAYLOAD,2024-06-04 11:56:54,14.98372677,0.0002853,70.0009,76.1762,277.9908,82.0927,-0.00060253,-7.283e-05,0.0,0 STARLINK-3071,1 49147U 21082T   24156.49785828 -.00007283  00000-0 -60253-3 0  9998,2 49147  70.0009  76.1762 0002853 277.9908  82.0927 14.98372677151797,6950.061,96.104,573.909,569.943,0.0
49147.0,STARLINK-3071,PAYLOAD,2024-06-04 18:21:28,14.98334934,0.0002286,70.001,75.5029,272.8807,87.209,3.9774e-05,3.82e-06,0.0,0 STARLINK-3071,1 49147U 21082T   24156.76490992  .00000382  00000-0  39774-4 0  9999,2 49147  70.0010  75.5029 0002286 272.8807  87.2090 14.98334934151837,6950.178,96.107,573.631,570.454,0.0
49147.0,STARLINK-3071,PAYLOAD,2024-06-04 23:09:52,14.9833396,0.0002318,70.0014,74.9962,276.3304,83.7591,2.4582e-05,2e-06,0.0,0 STARLINK-3071,1 49147U 21082T   24156.96519004  .00000200  00000-0  24582-4 0  9997,2 49147  70.0014  74.9962 0002318 276.3304  83.7591 14.98333960150695,6950.181,96.107,573.657,570.435,0.0
49147.0,STARLINK-3071,PAYLOAD,2024-06-05 11:58:56,14.98330638,0.0002894,70.0013,73.6511,270.286,89.7968,-6.4777e-06,-1.7e-06,0.0,0 STARLINK-3071,1 49147U 21082T   24157.49927058 -.00000170  00000-0 -64777-5 0  9997,2 49147  70.0013  73.6511 0002894 270.2860  89.7968 14.98330638150771,6950.191,96.107,574.067,570.045,0.0
49147.0,STARLINK-3071,PAYLOAD,2024-06-05 18:23:29,14.98326563,0.0002261,70.0022,72.9769,273.4983,86.5917,-7.4171e-05,-9.78e-06,0.0,0 STARLINK-3071,1 49147U 21082T   24157.76631748 -.00000978  00000-0 -74171-4 0  9999,2 49147  70.0022  72.9769 0002261 273.4983  86.5917 14.98326563151982,6950.204,96.107,573.64,570.497,0.0
49147.0,STARLINK-3071,PAYLOAD,2024-06-06 12:00:58,14.98329009,0.0002514,70.0021,71.1246,268.874,91.2131,-3.7684e-05,-5.42e-06,0.0,0 STARLINK-3071,1 49147U 21082T   24158.50067559 -.00000542  00000-0 -37684-4 0  9990,2 49147  70.0021  71.1246 0002514 268.8740  91.2131 14.98329009150924,6950.196,96.107,573.808,570.314,0.0
49147.0,STARLINK-3071,PAYLOAD,2024-06-07 16:51:23,14.98325483,0.0002843,70.0011,68.0952,267.772,92.3113,0.00010577,1.169e-05,0.0,0 STARLINK-3071,1 49147U 21082T   24159.70235331  .00001169  00000-0  10577-3 0  9993,2 49147  70.0011  68.0952 0002843 267.7720  92.3113 14.98325483152277,6950.207,96.107,574.048,570.096,0.0
49147.0,STARLINK-3071,PAYLOAD,2024-06-08 04:04:18,14.98339867,0.0002767,70.0014,66.9192,268.9293,91.1549,0.00020036,2.299e-05,0.0,0 STARLINK-3071,1 49147U 21082T   24160.16966117  .00002299  00000-0  20036-3 0  9994,2 49147  70.0014  66.9192 0002767 268.9293  91.1549 14.98339867152345,6950.162,96.106,573.95,570.104,0.0
